[Satellite]
VERSION=1.1
NAME=INTERCOSMOS 25
NICKNAME=INTERCOSMOS 25
TLE1=1 21819U 91086A   20157.78937223 -.00000210  00000-0 -43464-4 0  9991
TLE2=2 21819  82.5911 133.3322 1514315 296.8343  48.5812 12.05138495242881
STATUS=0
